{
  "type": "Feature",
  "properties": {
    "name": "Polo Hudson / circuito interno relevado",
    "status": "gps",
    "entry": "Peaje Hudson / acceso principal",
    "note": "Trazado relevado con GPS real, recorriendo las calles internas del predio."
  },
  "geometry": {
    "type": "LineString",
    "coordinates": [
      [-58.16265357808583, -34.77726115206997],
      [-58.163265121741645, -34.77704965409238],
      [-58.16350115613426, -34.77656496917171],
      [-58.164531124396696, -34.776829343111984],
      [-58.165185583395285, -34.778591814414135],
      [-58.1670082769999, -34.77859045661424],
      [-58.16770140776824, -34.778144907244794],
      [-58.167490454925705, -34.777563214169035],
      [-58.168545219138416, -34.777043399865484],
      [-58.167294570143355, -34.77597900797798],
      [-58.165712423824296, -34.77510025549104],
      [-58.16485354439394, -34.77477845646466],
      [-58.16354262315815, -34.77573147301299],
      [-58.16307648833398, -34.77660621590601],
      [-58.16341614034768, -34.77633953522133],
      [-58.16336141802256, -34.77659424064948],
      [-58.16258618508322, -34.777335878447694]
    ]
  }
}
